SITRO-AIS 26            
1 59067U 24039S   24117.57094915  .00007197  00000+0  69824-3 0  9995
2 59067  95.4011  62.4324 0174480 159.7261 201.1002 14.81987651  8469
SITRO-AIS 27            
1 59068U 24039T   24117.56664648  .00007245  00000+0  70099-3 0  9991
2 59068  95.4014  62.4381 0174241 159.6052 201.2240 14.82111235  8461
SITRO-AIS 28            
1 59071U 24039U   24117.56529008  .00007245  00000+0  70072-3 0  9996
2 59071  95.4014  62.4400 0174125 159.6035 201.2254 14.82143173  8460
